[{"OBJECT_NAME":"STARLINK-2298","OBJECT_ID":"2021-024AX","EPOCH":"2026-03-10T00:00:02.999808","MEAN_MOTION":15.15852398,"ECCENTRICITY":0.00022088,"INCLINATION":53.0935,"RA_OF_ASC_NODE":330.2189,"ARG_OF_PERICENTER":83.1069,"MEAN_ANOMALY":79.3652,"EPHEMERIS_TYPE":0,"CLASSIFICATION_TYPE":"U","NORAD_CAT_ID":48022,"ELEMENT_SET_NO":999,"REV_AT_EPOCH":575,"BSTAR":0.0020729399,"MEAN_MOTION_DOT":0.00040038,"MEAN_MOTION_DDOT":0},{"OBJECT_NAME":"ZORKY-2M 7","OBJECT_ID":"2025-313W","EPOCH":"2026-03-09T22:43:05.743200","MEAN_MOTION":15.21225131,"ECCENTRICITY":0.00148584,"INCLINATION":97.4012,"RA_OF_ASC_NODE":145.1843,"ARG_OF_PERICENTER":357.9354,"MEAN_ANOMALY":2.1818,"EPHEMERIS_TYPE":0,"CLASSIFICATION_TYPE":"U","NORAD_CAT_ID":67268,"ELEMENT_SET_NO":999,"REV_AT_EPOCH":1085,"BSTAR":0.00041986274,"MEAN_MOTION_DOT":9.334e-5,"MEAN_MOTION_DDOT":0}]
